ONEWEB-0098             
1 45442U 20020U   24328.87410287 -.00000256  00000+0 -75692-3 0  9995
2 45442  87.8886 134.6934 0001416  93.2320 266.8970 13.11413299227897
ONEWEB-0055             
1 45443U 20020V   24329.39377160  .00000249  00000+0  66760-3 0  9992
2 45443  87.8880 134.5925 0001422  88.2028 271.9262 13.11416720227935
ONEWEB-0093             
1 45444U 20020W   24329.44548962  .00000458  00000+0  12567-2 0  9996
2 45444  87.8884 134.5645 0001575  81.5536 278.5770 13.11415797228007
ONEWEB-0029             
1 45445U 20020X   24329.38788718  .00001992  00000+0  55818-2 0  9995
2 45445  87.8877 134.5887 0001659  85.6739 274.4579 13.11427986227971
ONEWEB-0068             
1 45446U 20020Y   24329.43954937  .00000180  00000+0  47250-3 0  9990
2 45446  87.8884 134.5651 0001654  87.7754 272.3563 13.11419561227929
ONEWEB-0046             
1 45447U 20020Z   24329.43701950  .00000095  00000+0  23240-3 0  9994
2 45447  87.8884 134.5777 0001771  98.8714 261.2615 13.11419227227933
ONEWEB-0063             
1 45448U 20020AA  24328.55029108  .00000179  00000+0  46955-3 0  9996
2 45448  87.8882 134.7535 0001544 100.9170 259.2132 13.11414474227902
ONEWEB-0019             
1 45449U 20020AB  24329.44041845  .00000285  00000+0  76932-3 0  9994
2 45449  87.8888 134.5861 0001356  92.8592 267.2691 13.11417500227864
